ORBCOMM FM24 [-]        
1 25478U 98053D   24094.52940668  .00001396  00000+0  52997-3 0  9993
2 25478  45.0069 189.4191 0002762 217.5795 142.4859 14.35457742334216
ORBCOMM FM25 [-]        
1 25479U 98053E   24094.70397576  .00001323  00000+0  50483-3 0  9996
2 25479  45.0071 186.8363 0005327 216.1884 143.8603 14.35439921334532
ORBCOMM FM26 [-]        
1 25480U 98053F   24094.62697067  .00001123  00000+0  44052-3 0  9990
2 25480  45.0065 181.1668 0007526 230.0919 129.9267 14.34910949334466
ORBCOMM FM27 [+]        
1 25481U 98053G   24094.62206602  .00001215  00000+0  46800-3 0  9997
2 25481  45.0047 187.4876 0001773 247.7254 112.3405 14.35420294334451
ORBCOMM FM28 [-]        
1 25482U 98053H   24094.82867082  .00001115  00000+0  42950-3 0  9996
2 25482  45.0052 125.1025 0006009 262.7963  97.2201 14.35862665335159
ORBCOMM FM30 [-]        
1 25980U 99065A   24094.87097643  .00001288  00000+0  49671-3 0  9994
2 25980  45.0336   5.5087 0007022 330.7498  29.2955 14.35054333271291
ORBCOMM FM31 [-]        
1 25981U 99065B   24094.83660129  .00001118  00000+0  43758-3 0  9998
2 25981  45.0250 359.3897 0004151 352.2193   7.8589 14.35058805270840
ORBCOMM FM32 [+]        
1 25982U 99065C   24094.86146246  .00001226  00000+0  48473-3 0  9990
2 25982  45.0179  12.8117 0006702 352.6444   7.4303 14.34030172271481
